NORAD_CAT_ID,OBJECT_NAME,OBJECT_TYPE,EPOCH,MEAN_MOTION,ECCENTRICITY,INCLINATION,RA_OF_ASC_NODE,ARG_OF_PERICENTER,MEAN_ANOMALY,BSTAR,MEAN_MOTION_DOT,MEAN_MOTION_DDOT,TLE_LINE0,TLE_LINE1,TLE_LINE2,SEMIMAJOR_AXIS,PERIOD,APOGEE,PERIGEE,DECAYED
56458.0,STARLINK-6050,PAYLOAD,2024-05-01 12:55:46,14.98330407,0.000292,70.0006,51.8645,269.0625,91.02,5.3178e-05,5.42e-06,0.0,0 STARLINK-6050,1 56458U 23064L   24122.53872878  .00000542  00000-0  53178-4 0  9991,2 56458  70.0006  51.8645 0002920 269.0625  91.0200 14.98330407 53813,6950.192,96.107,574.086,570.027,0.0
56458.0,STARLINK-6050,PAYLOAD,2024-05-01 19:20:18,14.98295733,0.0002749,70.0007,51.1913,267.8231,92.2613,0.00058896,6.935e-05,0.0,0 STARLINK-6050,1 56458U 23064L   24122.80576940  .00006935  00000-0  58896-3 0  9995,2 56458  70.0007  51.1913 0002749 267.8231  92.2613 14.98295733 53850,6950.299,96.109,574.074,570.253,0.0
56458.0,STARLINK-6050,PAYLOAD,2024-05-02 04:57:07,14.9830126,0.0002737,70.0007,50.1818,268.1378,91.9467,0.00058065,6.837e-05,0.0,0 STARLINK-6050,1 56458U 23064L   24123.20633265  .00006837  00000-0  58065-3 0  9993,2 56458  70.0007  50.1818 0002737 268.1378  91.9467 14.98301260 54279,6950.282,96.109,574.049,570.244,0.0
56458.0,STARLINK-6050,PAYLOAD,2024-05-02 12:57:46,14.98332704,0.0003007,70.0005,49.34,267.5088,92.5727,-3.846e-05,-5.52e-06,0.0,0 STARLINK-6050,1 56458U 23064L   24123.54012657 -.00000552  00000-0 -38460-4 0  9994,2 56458  70.0005  49.3400 0003007 267.5088  92.5727 14.98332704 54325,6950.185,96.107,574.139,569.96,0.0
56458.0,STARLINK-6050,PAYLOAD,2024-05-03 04:59:06,14.98341391,0.0002902,70.0005,47.6568,269.9486,90.1341,8.2557e-05,8.92e-06,0.0,0 STARLINK-6050,1 56458U 23064L   24124.20771631  .00000892  00000-0  82557-4 0  9993,2 56458  70.0005  47.6568 0002902 269.9486  90.1341 14.98341391 54421,6950.158,96.106,574.04,570.006,0.0
56458.0,STARLINK-6050,PAYLOAD,2024-05-03 21:00:28,14.98321553,0.0002728,70.0008,45.9734,270.4544,89.6303,-0.0001148,-1.462e-05,0.0,0 STARLINK-6050,1 56458U 23064L   24124.87533537 -.00001462  00000-0 -11480-3 0  9999,2 56458  70.0008  45.9734 0002728 270.4544  89.6303 14.98321553 54528,6950.219,96.108,573.98,570.188,0.0
56458.0,STARLINK-6050,PAYLOAD,2024-05-04 21:02:29,14.98329032,0.0002895,70.0004,43.4489,268.8255,91.2572,-7.232e-06,-1.79e-06,0.0,0 STARLINK-6050,1 56458U 23064L   24125.87673169 -.00000179  00000-0 -72320-5 0  9992,2 56458  70.0004  43.4489 0002895 268.8255  91.2572 14.98329032 54672,6950.196,96.107,574.073,570.049,0.0
56458.0,STARLINK-6050,PAYLOAD,2024-05-05 05:03:09,14.98336924,0.0002879,70.0005,42.6073,268.3848,91.6982,2.8888e-05,2.52e-06,0.0,0 STARLINK-6050,1 56458U 23064L   24126.21052542  .00000252  00000-0  28888-4 0  9996,2 56458  70.0005  42.6073 0002879 268.3848  91.6982 14.98336924 54721,6950.171,96.107,574.037,570.036,0.0
56458.0,STARLINK-6050,PAYLOAD,2024-05-05 22:40:38,14.98329622,0.0002873,70.0005,40.7556,269.2365,90.8465,0.00018118,2.069e-05,0.0,0 STARLINK-6050,1 56458U 23064L   24126.94488508  .00002069  00000-0  18118-3 0  9993,2 56458  70.0005  40.7556 0002873 269.2365  90.8465 14.98329622 54470,6950.194,96.107,574.056,570.062,0.0
56458.0,STARLINK-6050,PAYLOAD,2024-05-06 05:05:09,14.98337576,0.0002758,70.0006,40.0828,266.4034,93.681,0.00025657,2.97e-05,0.0,0 STARLINK-6050,1 56458U 23064L   24127.21191714  .00002970  00000-0  25657-3 0  9991,2 56458  70.0006  40.0828 0002758 266.4034  93.6810 14.98337576 54876,6950.169,96.107,573.951,570.118,0.0
56458.0,STARLINK-6050,PAYLOAD,2024-05-06 21:06:30,14.98334855,0.0002466,70.0018,38.4009,244.7899,115.3005,2.6285e-05,2.21e-06,0.0,0 STARLINK-6050,1 56458U 23064L   24127.87952239  .00000221  00000-0  26285-4 0  9996,2 56458  70.0018  38.4009 0002466 244.7899 115.3005 14.98334855 54971,6950.178,96.107,573.757,570.329,0.0
56458.0,STARLINK-6050,PAYLOAD,2024-05-06 22:42:38,14.98335034,0.0002462,70.0019,38.2326,244.7427,115.3477,2.752e-05,2.36e-06,0.0,0 STARLINK-6050,1 56458U 23064L   24127.94628197  .00000236  00000-0  27520-4 0  9996,2 56458  70.0019  38.2326 0002462 244.7427 115.3477 14.98335034 54620,6950.177,96.107,573.753,570.331,0.0
56458.0,STARLINK-6050,PAYLOAD,2024-05-07 11:31:43,14.98333517,0.0002473,70.0017,36.8865,269.0463,91.0413,-5.6838e-05,-7.71e-06,0.0,0 STARLINK-6050,1 56458U 23064L   24128.48036404 -.00000771  00000-0 -56838-4 0  9990,2 56458  70.0017  36.8865 0002473 269.0463  91.0413 14.98333517 54705,6950.182,96.107,573.766,570.328,0.0
56458.0,STARLINK-6050,PAYLOAD,2024-05-07 21:08:32,14.98329363,0.0002763,70.0,35.8729,266.8972,93.1871,-0.0001925,-2.389e-05,0.0,0 STARLINK-6050,1 56458U 23064L   24128.88092957 -.00002389  00000-0 -19250-3 0  9992,2 56458  70.0000  35.8729 0002763 266.8972  93.1871 14.98329363 55129,6950.195,96.107,573.98,570.14,0.0
56458.0,STARLINK-6050,PAYLOAD,2024-05-07 22:44:40,14.98326936,0.0002677,70.0007,35.7054,265.8425,94.2428,-0.00019024,-2.362e-05,0.0,0 STARLINK-6050,1 56458U 23064L   24128.94769116 -.00002362  00000-0 -19024-3 0  9997,2 56458  70.0007  35.7054 0002677 265.8425  94.2428 14.98326936 54775,6950.202,96.107,573.928,570.207,0.0
56458.0,STARLINK-6050,PAYLOAD,2024-05-08 03:33:03,14.98337527,0.0002728,70.0015,35.203,266.1303,93.9544,-1.2365e-06,-1.08e-06,0.0,0 STARLINK-6050,1 56458U 23064L   24129.14795999 -.00000108  00000-0 -12365-5 0  9997,2 56458  70.0015  35.2030 0002728 266.1303  93.9544 14.98337527 55166,6950.17,96.107,573.931,570.139,0.0
56458.0,STARLINK-6050,PAYLOAD,2024-05-08 11:33:41,14.98369697,0.000281,69.9994,34.3596,264.576,95.5078,0.00020949,2.41e-05,0.0,0 STARLINK-6050,1 56458U 23064L   24129.48172806  .00002410  00000-0  20949-3 0  9991,2 56458  69.9994  34.3596 0002810 264.5760  95.5078 14.98369697 55216,6950.07,96.104,573.888,569.982,0.0
56458.0,STARLINK-6050,PAYLOAD,2024-05-08 22:46:41,14.98312773,0.0003211,70.0001,33.182,258.8917,101.1881,-0.00034781,-4.239e-05,0.0,0 STARLINK-6050,1 56458U 23064L   24129.94908816 -.00004239  00000-0 -34781-3 0  9992,2 56458  70.0001  33.1820 0003211 258.8917 101.1881 14.98312773 54927,6950.246,96.108,574.343,569.879,0.0
56458.0,STARLINK-6050,PAYLOAD,2024-05-09 03:35:04,14.98328749,0.0002885,70.0007,32.6761,260.8934,99.1899,-0.0001405,-1.769e-05,0.0,0 STARLINK-6050,1 56458U 23064L   24130.14935428 -.00001769  00000-0 -14050-3 0  9997,2 56458  70.0007  32.6761 0002885 260.8934  99.1899 14.98328749 55318,6950.197,96.107,574.067,570.057,0.0
56458.0,STARLINK-6050,PAYLOAD,2024-05-09 21:12:33,14.98312531,0.0002888,70.0009,30.8248,270.8624,89.2204,-6.1999e-05,-8.32e-06,0.0,0 STARLINK-6050,1 56458U 23064L   24130.88372647 -.00000832  00000-0 -61999-4 0  9991,2 56458  70.0009  30.8248 0002888 270.8624  89.2204 14.98312531 55424,6950.247,96.108,574.119,570.105,0.0
56458.0,STARLINK-6050,PAYLOAD,2024-05-10 03:37:05,14.98319762,0.000276,70.0011,30.1517,266.8371,93.2472,-2.7499e-05,-4.21e-06,0.0,0 STARLINK-6050,1 56458U 23064L   24131.15076269 -.00000421  00000-0 -27499-4 0  9994,2 56458  70.0011  30.1517 0002760 266.8371  93.2472 14.98319762 55461,6950.225,96.108,574.008,570.171,0.0
56458.0,STARLINK-6050,PAYLOAD,2024-05-10 10:01:38,14.98318027,0.0002771,70.0011,29.4784,265.1046,94.9796,-2.1393e-05,-3.48e-06,0.0,0 STARLINK-6050,1 56458U 23064L   24131.41780487 -.00000348  00000-0 -21393-4 0  9992,2 56458  70.0011  29.4784 0002771 265.1046  94.9796 14.98318027 55146,6950.23,96.108,574.021,570.169,0.0
56458.0,STARLINK-6050,PAYLOAD,2024-05-10 21:14:32,14.98354511,0.000219,70.0035,28.301,271.0946,88.9962,-0.00018213,-2.267e-05,0.0,0 STARLINK-6050,1 56458U 23064L   24131.88510410 -.00002267  00000-0 -18213-3 0  9998,2 56458  70.0035  28.3010 0002190 271.0946  88.9962 14.98354511 55575,6950.117,96.105,573.504,570.46,0.0
56458.0,STARLINK-6050,PAYLOAD,2024-05-10 22:50:39,14.98364261,0.0002563,70.0023,28.1344,247.4717,112.6171,8.7401e-05,9.51e-06,0.0,0 STARLINK-6050,1 56458U 23064L   24131.95184795  .00000951  00000-0  87401-4 0  9991,2 56458  70.0023  28.1344 0002563 247.4717 112.6171 14.98364261 55229,6950.087,96.105,573.733,570.171,0.0
56458.0,STARLINK-6050,PAYLOAD,2024-05-11 02:02:54,14.98382708,0.0002767,70.0009,27.7951,265.4796,94.6047,0.00036668,4.291e-05,0.0,0 STARLINK-6050,1 56458U 23064L   24132.08534751  .00004291  00000-0  36668-3 0  9996,2 56458  70.0009  27.7951 0002767 265.4796  94.6047 14.98382708 55604,6950.03,96.104,573.818,569.972,0.0
56458.0,STARLINK-6050,PAYLOAD,2024-05-11 21:16:36,14.9829366,0.0003755,69.9992,25.7741,283.6287,76.4454,-0.00031466,-3.842e-05,0.0,0 STARLINK-6050,1 56458U 23064L   24132.88652943 -.00003842  00000-0 -31466-3 0  9992,2 56458  69.9992  25.7741 0003755 283.6287  76.4454 14.98293660 55723,6950.305,96.109,574.78,569.56,0.0
56458.0,STARLINK-6050,PAYLOAD,2024-05-11 22:52:44,14.9829471,0.0002875,70.0004,25.6061,268.3151,91.7678,-0.00029182,-3.57e-05,0.0,0 STARLINK-6050,1 56458U 23064L   24132.95328915 -.00003570  00000-0 -29182-3 0  9999,2 56458  70.0004  25.6061 0002875 268.3151  91.7678 14.98294710 55372,6950.302,96.109,574.165,570.169,0.0
56458.0,STARLINK-6050,PAYLOAD,2024-05-12 02:05:00,14.9829994,0.0002729,70.0009,25.2702,268.359,91.7257,-0.00021686,-2.677e-05,0.0,0 STARLINK-6050,1 56458U 23064L   24133.08680633 -.00002677  00000-0 -21686-3 0  9990,2 56458  70.0009  25.2702 0002729 268.3590  91.7257 14.98299940 55755,6950.286,96.109,574.048,570.254,0.0
56458.0,STARLINK-6050,PAYLOAD,2024-05-12 19:42:36,14.98231884,0.0002648,70.0006,23.4184,273.3747,86.7109,-0.00095855,-0.00011482,0.0,0 STARLINK-6050,1 56458U 23064L   24133.82125474 -.00011482  00000-0 -95855-3 0  9992,2 56458  70.0006  23.4184 0002648 273.3747  86.7109 14.98231884 55861,6950.496,96.113,574.202,570.521,0.0
56458.0,STARLINK-6050,PAYLOAD,2024-05-12 22:54:46,14.98336692,0.0002548,70.0007,23.082,260.2735,99.8136,-0.00026577,-3.263e-05,0.0,0 STARLINK-6050,1 56458U 23064L   24133.95470016 -.00003263  00000-0 -26577-3 0  9994,2 56458  70.0007  23.0820 0002548 260.2735  99.8136 14.98336692 55527,6950.172,96.107,573.808,570.266,0.0
